[{"OBJECT_NAME":"LEMUR-2-STAS-GORBUK","OBJECT_ID":"2025-276W","EPOCH":"2026-03-09T17:09:04.423392","MEAN_MOTION":15.18201916,"ECCENTRICITY":0.00048292,"INCLINATION":97.4319,"RA_OF_ASC_NODE":143.9565,"ARG_OF_PERICENTER":1.4677,"MEAN_ANOMALY":358.657,"EPHEMERIS_TYPE":0,"CLASSIFICATION_TYPE":"U","NORAD_CAT_ID":66686,"ELEMENT_SET_NO":999,"REV_AT_EPOCH":1531,"BSTAR":0.00034029454,"MEAN_MOTION_DOT":6.895e-5,"MEAN_MOTION_DDOT":0},{"OBJECT_NAME":"CZ-4 DEB","OBJECT_ID":"1990-081AM","EPOCH":"2026-03-09T17:46:45.223680","MEAN_MOTION":15.18516637,"ECCENTRICITY":0.00075172,"INCLINATION":98.1393,"RA_OF_ASC_NODE":114.284,"ARG_OF_PERICENTER":213.3287,"MEAN_ANOMALY":271.4543,"EPHEMERIS_TYPE":0,"CLASSIFICATION_TYPE":"U","NORAD_CAT_ID":20877,"ELEMENT_SET_NO":999,"REV_AT_EPOCH":85586,"BSTAR":0.0032141907,"MEAN_MOTION_DOT":0.00066859,"MEAN_MOTION_DDOT":0}]
